start=new Date('2023-04-14T00:00:00.000Z').valueOf();
sats=[{"SITE":"AFETR","LAUNCH_DATE":"2021-02-16","CLASSIFICATION_TYPE":"U","EPOCH":"2023-04-13T19:49:02.594208","NORAD_CAT_ID":"47622","OBJECT_NAME":"STARLINK-1645","TIME_SYSTEM":"UTC","MEAN_ANOMALY":"269.4888","SEMIMAJOR_AXIS":"6925.352","REV_AT_EPOCH":"11957","GP_ID":"230027426","DECAY_DATE":null,"TLE_LINE2":"2 47622  53.0522 154.0118 0001807  90.6308 269.4888 15.06399002119575","OBJECT_ID":"2021-012C","REF_FRAME":"TEME","ECCENTRICITY":"0.00018070","APOAPSIS":"548.468","PERIAPSIS":"545.965","TLE_LINE1":"1 47622U 21012C   23103.82572447  .00006892  00000-0  48112-3 0  9999","RCS_SIZE":"LARGE","MEAN_MOTION":"15.06399002","MEAN_MOTION_DDOT":"0.0000000000000","ARG_OF_PERICENTER":"90.6308","EPHEMERIS_TYPE":"0","INCLINATION":"53.0522","MEAN_MOTION_DOT":"0.00006892","PERIOD":"95.592","FILE":"3886962","OBJECT_TYPE":"PAYLOAD","RA_OF_ASC_NODE":"154.0118","ELEMENT_SET_NO":"999","COUNTRY_CODE":"US","CENTER_NAME":"EARTH","MEAN_ELEMENT_THEORY":"SGP4","BSTAR":"0.00048112000000"},{"OBJECT_NAME":"STARLINK-1655","NORAD_CAT_ID":"47623","EPOCH":"2023-04-13T05:47:07.497600","CLASSIFICATION_TYPE":"U","LAUNCH_DATE":"2021-02-16","SITE":"AFETR","APOAPSIS":"548.134","ECCENTRICITY":"0.00014180","REF_FRAME":"TEME","OBJECT_ID":"2021-012D","TLE_LINE2":"2 47623  53.0531  91.6419 0001418 100.9632 259.1516 15.06420004120910","DECAY_DATE":null,"GP_ID":"230012173","REV_AT_EPOCH":"12091","SEMIMAJOR_AXIS":"6925.287","MEAN_ANOMALY":"259.1516","TIME_SYSTEM":"UTC","EPHEMERIS_TYPE":"0","ARG_OF_PERICENTER":"100.9632","MEAN_MOTION_DDOT":"0.0000000000000","TLE_LINE1":"1 47623U 21012D   23103.24105900  .00012310  00000-0  84343-3 0  9990","MEAN_MOTION":"15.06420004","RCS_SIZE":"LARGE","PERIAPSIS":"546.170","BSTAR":"0.00084343000000","MEAN_ELEMENT_THEORY":"SGP4","CENTER_NAME":"EARTH","COUNTRY_CODE":"US","ELEMENT_SET_NO":"999","RA_OF_ASC_NODE":"91.6419","OBJECT_TYPE":"PAYLOAD","FILE":"3886564","PERIOD":"95.591","MEAN_MOTION_DOT":"0.00012310","INCLINATION":"53.0531"},{"LAUNCH_DATE":"2021-02-16","SITE":"AFETR","CLASSIFICATION_TYPE":"U","EPOCH":"2023-04-13T07:14:02.614560","NORAD_CAT_ID":"47624","OBJECT_NAME":"STARLINK-1669","MEAN_ANOMALY":"287.5299","TIME_SYSTEM":"UTC","GP_ID":"230012424","REV_AT_EPOCH":"12030","SEMIMAJOR_AXIS":"6925.319","DECAY_DATE":null,"TLE_LINE2":"2 47624  53.0528 136.3732 0001271  72.5829 287.5299 15.06409805120303","OBJECT_ID":"2021-012E","REF_FRAME":"TEME","ECCENTRICITY":"0.00012710","APOAPSIS":"548.064","TLE_LINE1":"1 47624U 21012E   23103.30141915  .00017358  00000-0  11810-2 0  9999","MEAN_MOTION":"15.06409805","RCS_SIZE":"LARGE","PERIAPSIS":"546.303","MEAN_MOTION_DDOT":"0.0000000000000","ARG_OF_PERICENTER":"72.5829","EPHEMERIS_TYPE":"0","MEAN_MOTION_DOT":"0.00017358","INCLINATION":"53.0528","PERIOD":"95.592","OBJECT_TYPE":"PAYLOAD","FILE":"3886564","ELEMENT_SET_NO":"999","RA_OF_ASC_NODE":"136.3732","CENTER_NAME":"EARTH","COUNTRY_CODE":"US","BSTAR":"0.00118100000000","MEAN_ELEMENT_THEORY":"SGP4"},{"GP_ID":"230027433","REV_AT_EPOCH":"11957","SEMIMAJOR_AXIS":"6925.308","MEAN_ANOMALY":"255.1572","TIME_SYSTEM":"UTC","TLE_LINE2":"2 47625  53.0538 153.9800 0001225 104.9553 255.1572 15.06413200119575","OBJECT_ID":"2021-012F","DECAY_DATE":null,"ECCENTRICITY":"0.00012250","REF_FRAME":"TEME","APOAPSIS":"548.021","CLASSIFICATION_TYPE":"U","LAUNCH_DATE":"2021-02-16","SITE":"AFETR","NORAD_CAT_ID":"47625","EPOCH":"2023-04-13T19:59:38.253696","OBJECT_NAME":"STARLINK-1704","PERIOD":"95.591","MEAN_MOTION_DOT":"0.00008596","INCLINATION":"53.0538","OBJECT_TYPE":"PAYLOAD","FILE":"3886963","CENTER_NAME":"EARTH","COUNTRY_CODE":"US","ELEMENT_SET_NO":"999","RA_OF_ASC_NODE":"153.9800","BSTAR":"0.00059507000000","MEAN_ELEMENT_THEORY":"SGP4","MEAN_MOTION":"15.06413200","TLE_LINE1":"1 47625U 21012F   23103.83308164  .00008596  00000-0  59507-3 0  9999","RCS_SIZE":"LARGE","PERIAPSIS":"546.325","EPHEMERIS_TYPE":"0","ARG_OF_PERICENTER":"104.9553","MEAN_MOTION_DDOT":"0.0000000000000"},{"ELEMENT_SET_NO":"999","RA_OF_ASC_NODE":"154.9435","CENTER_NAME":"EARTH","COUNTRY_CODE":"US","BSTAR":"0.00148740000000","MEAN_ELEMENT_THEORY":"SGP4","MEAN_MOTION_DOT":"0.00021960","INCLINATION":"53.0519","PERIOD":"95.590","OBJECT_TYPE":"PAYLOAD","FILE":"3886813","MEAN_MOTION_DDOT":"0.0000000000000","EPHEMERIS_TYPE":"0","ARG_OF_PERICENTER":"62.3343","TLE_LINE1":"1 47626U 21012G   23103.62023664  .00021960  00000-0  14874-2 0  9993","MEAN_MOTION":"15.06429540","RCS_SIZE":"LARGE","PERIAPSIS":"546.065","REF_FRAME":"TEME","ECCENTRICITY":"0.00015280","APOAPSIS":"548.181","MEAN_ANOMALY":"297.7800","TIME_SYSTEM":"UTC","REV_AT_EPOCH":"11954","GP_ID":"230023284","SEMIMAJOR_AXIS":"6925.258","DECAY_DATE":null,"OBJECT_ID":"2021-012G","TLE_LINE2":"2 47626  53.0519 154.9435 0001528  62.3343 297.7800 15.06429540119547","OBJECT_NAME":"STARLINK-1761","LAUNCH_DATE":"2021-02-16","SITE":"AFETR","CLASSIFICATION_TYPE":"U","EPOCH":"2023-04-13T14:53:08.445696","NORAD_CAT_ID":"47626"},{"CLASSIFICATION_TYPE":"U","LAUNCH_DATE":"2021-02-16","SITE":"AFETR","NORAD_CAT_ID":"47627","EPOCH":"2023-04-13T07:10:44.342112","OBJECT_NAME":"STARLINK-1972","REV_AT_EPOCH":"12081","GP_ID":"230019285","SEMIMAJOR_AXIS":"6925.356","MEAN_ANOMALY":"261.1143","TIME_SYSTEM":"UTC","OBJECT_ID":"2021-012H","TLE_LINE2":"2 47627  53.0550  61.3824 0001347  98.9999 261.1143 15.06397626120813","DECAY_DATE":null,"ECCENTRICITY":"0.00013470","REF_FRAME":"TEME","APOAPSIS":"548.154","MEAN_MOTION":"15.06397626","TLE_LINE1":"1 47627U 21012H   23103.29912433  .00018864  00000-0  12820-2 0  9996","RCS_SIZE":"LARGE","PERIAPSIS":"546.288","ARG_OF_PERICENTER":"98.9999","EPHEMERIS_TYPE":"0","MEAN_MOTION_DDOT":"0.0000000000000","PERIOD":"95.592","MEAN_MOTION_DOT":"0.00018864","INCLINATION":"53.0550","OBJECT_TYPE":"PAYLOAD","FILE":"3886636","CENTER_NAME":"EARTH","COUNTRY_CODE":"US","ELEMENT_SET_NO":"999","RA_OF_ASC_NODE":"61.3824","BSTAR":"0.00128200000000","MEAN_ELEMENT_THEORY":"SGP4"},{"OBJECT_NAME":"STARLINK-1973","EPOCH":"2023-04-13T20:31:29.294688","NORAD_CAT_ID":"47628","SITE":"AFETR","LAUNCH_DATE":"2021-02-16","CLASSIFICATION_TYPE":"U","APOAPSIS":"547.961","REF_FRAME":"TEME","ECCENTRICITY":"0.00010470","DECAY_DATE":null,"TLE_LINE2":"2 47628  53.0525 153.8791 0001047  93.2177 266.8932 15.06392693119577","OBJECT_ID":"2021-012J","TIME_SYSTEM":"UTC","MEAN_ANOMALY":"266.8932","SEMIMAJOR_AXIS":"6925.371","REV_AT_EPOCH":"11957","GP_ID":"230027437","MEAN_MOTION_DDOT":"0.0000000000000","ARG_OF_PERICENTER":"93.2177","EPHEMERIS_TYPE":"0","PERIAPSIS":"546.511","RCS_SIZE":"LARGE","TLE_LINE1":"1 47628U 21012J   23103.85520017 -.00005273  00000-0 -33541-3 0  9998","MEAN_MOTION":"15.06392693","MEAN_ELEMENT_THEORY":"SGP4","BSTAR":"-0.00033541000000","RA_OF_ASC_NODE":"153.8791","ELEMENT_SET_NO":"999","COUNTRY_CODE":"US","CENTER_NAME":"EARTH","FILE":"3886963","OBJECT_TYPE":"PAYLOAD","INCLINATION":"53.0525","MEAN_MOTION_DOT":"-0.00005273","PERIOD":"95.593"},{"PERIOD":"95.594","INCLINATION":"53.0544","MEAN_MOTION_DOT":"0.00030200","FILE":"3886636","OBJECT_TYPE":"PAYLOAD","COUNTRY_CODE":"US","CENTER_NAME":"EARTH","RA_OF_ASC_NODE":"35.4535","ELEMENT_SET_NO":"999","MEAN_ELEMENT_THEORY":"SGP4","BSTAR":"0.00203930000000","PERIAPSIS":"546.275","TLE_LINE1":"1 47629U 21012K   23103.50598287  .00030200  00000-0  20393-2 0  9991","MEAN_MOTION":"15.06370338","RCS_SIZE":"LARGE","EPHEMERIS_TYPE":"0","ARG_OF_PERICENTER":"85.7343","MEAN_MOTION_DDOT":"0.0000000000000","SEMIMAJOR_AXIS":"6925.439","GP_ID":"230019288","REV_AT_EPOCH":"12120","TIME_SYSTEM":"UTC","MEAN_ANOMALY":"274.3816","OBJECT_ID":"2021-012K","TLE_LINE2":"2 47629  53.0544  35.4535 0001486  85.7343 274.3816 15.06370338121208","DECAY_DATE":null,"ECCENTRICITY":"0.00014860","REF_FRAME":"TEME","APOAPSIS":"548.334","CLASSIFICATION_TYPE":"U","SITE":"AFETR","LAUNCH_DATE":"2021-02-16","NORAD_CAT_ID":"47629","EPOCH":"2023-04-13T12:08:36.919968","OBJECT_NAME":"STARLINK-1974"},{"DECAY_DATE":null,"OBJECT_ID":"2021-012L","TLE_LINE2":"2 47630  53.0525 134.2454 0001509  96.1169 263.9992 15.06407179119845","TIME_SYSTEM":"UTC","MEAN_ANOMALY":"263.9992","SEMIMAJOR_AXIS":"6925.327","GP_ID":"230027061","REV_AT_EPOCH":"11984","APOAPSIS":"548.237","REF_FRAME":"TEME","ECCENTRICITY":"0.00015090","EPOCH":"2023-04-13T19:05:17.276640","NORAD_CAT_ID":"47630","LAUNCH_DATE":"2021-02-16","SITE":"AFETR","CLASSIFICATION_TYPE":"U","OBJECT_NAME":"STARLINK-1983","FILE":"3886963","OBJECT_TYPE":"PAYLOAD","INCLINATION":"53.0525","MEAN_MOTION_DOT":"0.00007137","PERIOD":"95.592","MEAN_ELEMENT_THEORY":"SGP4","BSTAR":"0.00049741000000","RA_OF_ASC_NODE":"134.2454","ELEMENT_SET_NO":"999","COUNTRY_CODE":"US","CENTER_NAME":"EARTH","PERIAPSIS":"546.147","MEAN_MOTION":"15.06407179","TLE_LINE1":"1 47630U 21012L   23103.79533885  .00007137  00000-0  49741-3 0  9999","RCS_SIZE":"LARGE","MEAN_MOTION_DDOT":"0.0000000000000","EPHEMERIS_TYPE":"0","ARG_OF_PERICENTER":"96.1169"},{"REF_FRAME":"TEME","ECCENTRICITY":"0.00010370","APOAPSIS":"548.004","TIME_SYSTEM":"UTC","MEAN_ANOMALY":"276.0699","SEMIMAJOR_AXIS":"6925.421","GP_ID":"230012174","REV_AT_EPOCH":"12132","DECAY_DATE":null,"OBJECT_ID":"2021-012N","TLE_LINE2":"2 47632  53.0547  61.2710 0001037  84.0408 276.0699 15.06376306121325","OBJECT_NAME":"STARLINK-1992","LAUNCH_DATE":"2021-02-16","SITE":"AFETR","CLASSIFICATION_TYPE":"U","EPOCH":"2023-04-13T07:46:31.125504","NORAD_CAT_ID":"47632","RA_OF_ASC_NODE":"61.2710","ELEMENT_SET_NO":"999","COUNTRY_CODE":"US","CENTER_NAME":"EARTH","MEAN_ELEMENT_THEORY":"SGP4","BSTAR":"0.00157540000000","INCLINATION":"53.0547","MEAN_MOTION_DOT":"0.00023247","PERIOD":"95.594","FILE":"3886564","OBJECT_TYPE":"PAYLOAD","MEAN_MOTION_DDOT":"0.0000000000000","EPHEMERIS_TYPE":"0","ARG_OF_PERICENTER":"84.0408","PERIAPSIS":"546.568","TLE_LINE1":"1 47632U 21012N   23103.32397136  .00023247  00000-0  15754-2 0  9993","RCS_SIZE":"LARGE","MEAN_MOTION":"15.06376306"}];
